GREENCUBE (IO-117)
1 53106U 22080B   25051.21822557 -.00000003  00000-0  00000 0 0  9995
2 53106  70.1434 106.3440 0008542  48.0089 312.1297  6.42557744 61200
ROBUSTA 1F (MTCUBE-2)
1 53109U 22080E   26174.72102765 -.00000003  00000-0  00000-0 0  9994
2 53109  70.1445 295.9726 0008927 288.1418  71.8270  6.42583215 92483
BLUEWALKER-3
1 53807U 22111AL  26176.49589115  .00008075  00000-0  22031-3 0  9995
2 53807  53.2299 354.9621 0005611 187.0460 173.0467 15.38371451211486
ELEKTRO-L4
1 55506U 23016A   26175.78133623 -.00000049  00000-0  00000-0 0  9991
2 55506   0.0810 151.7558 0000965  29.9863 178.2522  1.00271303 12413
SHARJAHSAT-1
1 55104U 23001CZ  26176.63890625  .00024020  00000-0  43868-3 0  9992
2 55104  97.3179 245.5224 0006541  79.7886 280.4103 15.49381254193809
METEOR M2-3
1 57166U 23091A   26176.60020782 -.00000003  00000-0  17597-4 0  9994
2 57166  98.6079 231.4064 0004764 134.7604 225.3964 14.24047424155714
RESHUCUBE-2 (RS37S)
1 57168U 23091C   26176.55339259  .00011184  00000-0  42781-3 0  9995
2 57168  97.5026 238.9144 0012655  81.0248 279.2423 15.26680762165533
RASSVET 1-1
1 57169U 23091D   26176.52377027  .00011534  00000-0  47369-3 0  9994
2 57169  97.5112 238.0797 0011550  77.3269 282.9259 15.24306886165436
RASSVET 1-2
1 57170U 23091E   26176.52392334  .00011495  00000-0  47228-3 0  9994
2 57170  97.5117 238.1580 0010356  70.5179 289.7176 15.24306635165437
RASSVET 1-3
1 57171U 23091F   26176.52355011  .00011685  00000-0  47966-3 0  9996
2 57171  97.5113 238.1078 0012429  86.0969 274.1689 15.24308290165434
UMKA-1 (RS40S)
1 57172U 23091G   26176.51559521  .00008178  00000-0  37188-3 0  9996
2 57172  97.5051 235.1806 0014307  91.9943 268.2931 15.20907085165275
SATURN (RS43S)
1 57174U 23091J   26176.51627220  .00004071  00000-0  22743-3 0  9999
2 57174  97.5054 229.4939 0014785 116.9469 243.3274 15.13980638164892
CUBEBEL-2 (EU11S)
1 57175U 23091K   26176.55938398  .00017024  00000-0  59898-3 0  9998
2 57175  97.5054 239.8514 0011164  89.3079 270.9440 15.29349443165583
SITRO-AIS-5 (ANOKHIN)
1 57176U 23091L   26176.50933606  .00015383  00000-0  53665-3 0  9993
2 57176  97.5063 240.4881 0012520  77.6689 282.5952 15.29633356165613
ZORKIY-2M
1 57177U 23091M   26176.50148903  .00008978  00000-0  40666-3 0  9991
2 57177  97.5093 235.4403 0014812  89.4375 270.8558 15.21005205165261
CUBESX-HSE-3 (RS42S)
1 57178U 23091N   26176.53811144  .00017491  00000-0  57734-3 0  9993
2 57178  97.5094 242.2312 0011616  68.7576 291.4904 15.31410874165706
PHI-DEMO
1 57181U 23091R   26176.48585479  .00004088  00000-0  22465-3 0  9991
2 57181  97.5067 230.3257 0016716 107.7893 252.5165 15.14546174164944
MONITOR-3 (RS58S)
1 57180U 23091Q   26176.51562893  .00013765  00000-0  50512-3 0  9995
2 57180  97.5086 240.0230 0012819  75.1032 285.1626 15.27997849165562
NORBY-2
1 57179U 23091P   26176.53184759  .00004642  00000-0  24063-3 0  9992
2 57179  97.5094 232.4388 0016486  96.6535 263.6575 15.16550902165059
MONITOR-4 (RS57S)
1 57182U 23091S   26176.55970557  .00013089  00000-0  47926-3 0  9995
2 57182  97.5079 240.0391 0012826  75.1936 285.0724 15.28084118165571
MONITOR-2 (RS39S)
1 57184U 23091U   26176.48146355  .00005648  00000-0  27276-3 0  9998
2 57184  97.5073 234.7107 0012770  86.0983 274.1711 15.18981670165217
SVYATOBOR-1 (RS60S)
1 57187U 23091X   26176.51450604  .00011540  00000-0  44075-3 0  9994
2 57187  97.5092 240.3777 0010591  69.3875 290.8498 15.26746325165582
VIZARD-METEO (RS38S)
1 57189U 23091Z   26176.55072093  .00021755  00000-0  61601-3 0  9995
2 57189  97.5094 246.2041 0007665  52.0534 308.1402 15.36273552165973
SITRO-AIS-6 (CHIRKIN)
1 57192U 23091AC  26176.50755291  .00013184  00000-0  51274-3 0  9994
2 57192  97.5070 239.5611 0012924  80.8158 279.4542 15.26082158165552
SITRO-AIS-8 (SHCHUKIN)
1 57193U 23091AD  26176.51173460  .00017364  00000-0  55684-3 0  9991
2 57193  97.5059 242.1132 0011467  74.1030 286.1474 15.32343645165720
SITRO-AIS-7 (SHEFFER)
1 57194U 23091AE  26176.51241039  .00012879  00000-0  50576-3 0  9991
2 57194  97.5068 239.3867 0012793  81.7271 278.5417 15.25766361165546
AVION KALUGA 650 (RS24S)
1 57195U 23091AF  26176.52064287  .00007084  00000-0  32734-3 0  9999
2 57195  97.5090 236.0632 0011866  84.3115 275.9473 15.20434178165290
SITRO-AIS-10 (KATYS)
1 57199U 23091AK  26176.50805763  .00024910  00000-0  64747-3 0  9999
2 57199  97.5083 247.2500 0006824  54.9894 305.1991 15.38907315166041
SITRO-AIS-9 (BURDAEV)
1 57201U 23091AM  26176.53713538  .00024389  00000-0  64435-3 0  9998
2 57201  97.5083 247.0030 0007076  55.0098 305.1810 15.38407270166033
UTMN-2 (RS27S)
1 57203U 23091AP  26176.48584410  .00016321  00000-0  52575-3 0  9998
2 57203  97.5089 243.8222 0008735  58.8741 301.3357 15.32239281165815
SITRO-AIS-12 (FARTUSHNY)
1 57204U 23091AQ  26176.52616485  .00023535  00000-0  61611-3 0  9998
2 57204  97.5095 247.4643 0006573  49.8892 310.2928 15.38700871166059
AHMAT-1 (RS41S)
1 57206U 23091AS  26176.50077342  .00107147  00000-0  10958-2 0  9990
2 57206  97.5037 256.8559 0001106 334.7109  25.4096 15.64673368166691
SITRO-AIS-11 (SMIRENNY)
1 57208U 23091AU  26176.53726529  .00024597  00000-0  63481-3 0  9990
2 57208  97.5093 247.7276 0006478  49.6117 310.5693 15.39130486166072
KUZGTU-1 (RS47S)
1 57217U 23091AV  26176.53664253  .00016404  00000-0  56510-3 0  9998
2 57217  97.5068 241.1017 0011960  72.1533 288.1010 15.30036915165659
STRATOSAT-TK1-D (RS52SD)
1 57326U 23091BA  26152.21233376  .01123604  69949-3  17159-2 0  9993
2 57326  97.4937 234.9933 0009457 258.3221 101.6998 16.04496538160877
METEOR M2-4
1 59051U 24039A   26176.62447576  .00000008  00000-0  23288-4 0  9996
2 59051  98.7013 135.8166 0007748 138.2102 221.9669 14.22430351120466
PARS-1
1 59065U 24039Q   26176.60041751  .00012940  00000-0  26744-3 0  9991
2 59065  97.4821 157.7856 0011513  87.0206 273.2360 15.45888850129941
SITRO-AIS-25
1 59066U 24039R   26176.61694118  .00002335  00000-0  18426-3 0  9999
2 59066  95.3909 240.8854 0142627 298.9571  59.7416 14.93551714125984
SITRO-AIS-26
1 59067U 24039S   26176.61946671  .00002247  00000-0  17824-3 0  9997
2 59067  95.3910 240.7829 0142999 299.5533  59.1501 14.93346029125974
SITRO-AIS-27
1 59068U 24039T   26176.58735142  .00003101  00000-0  24270-3 0  9996
2 59068  95.3911 241.0363 0141969 298.2163  60.4788 14.93766100125994
SITRO-AIS-28
1 59071U 24039U   26176.63158685  .00002555  00000-0  20039-3 0  9998
2 59071  95.3910 241.1147 0141945 297.8971  60.7939 14.93799261126002
SONATE-2
1 59112U 24043Q   26176.41835841  .00048297  00000-0  61197-3 0  9994
2 59112  97.5532 327.3230 0007289 168.5917 191.5506 15.59304758129178
HORS-1
1 57188U 23091Y   26176.56499417  .00011757  00000-0  44751-3 0  9996
2 57188  97.5069 240.1897 0010053  69.3583 290.8732 15.26858559165592
HORS-2
1 57196U 23091AG  26176.52479215  .00017002  00000-0  55015-3 0  9999
2 57196  97.5091 243.6684 0008833  62.7655 297.4485 15.32085410165805
ZORKIY-2M 6
1 59774U 24092B   26176.61305971  .00012194  00000-0  43673-3 0  9996
2 59774  97.6493 305.9519 0009602 147.4262 212.7572 15.28867816116823
ZORKIY-2M 4
1 59775U 24092C   26176.52423275  .00013245  00000-0  46398-3 0  9990
2 59775  97.6637 307.7347 0009609 150.0053 210.1739 15.29570474116850
SITRO-AIS-53
1 59776U 24092D   26176.36107334  .00022787  00000-0  62526-3 0  9990
2 59776  97.6582 309.7772 0007957 121.2234 238.9790 15.37245561117007
SITRO-AIS-54
1 59777U 24092E   26176.31098729  .00023001  00000-0  63280-3 0  9991
2 59777  97.6578 309.6804 0008028 121.7240 238.4787 15.37159675116998
SITRO-AIS-56
1 59778U 24092F   26175.82747309  .00022096  00000-0  59374-3 0  9994
2 59778  97.6573 309.5096 0008195 122.8986 237.3048 15.37898536116949
RASSVET 1-4
1 59779U 24092G   26176.61049294  .00000134  00000-0  66776-4 0  9995
2 59779  98.6710 295.6426 0011986 178.0927 182.0304 14.31848438110108
RASSVET 1-5
1 59780U 24092H   26176.61039685  .00000155  00000-0  74713-4 0  9993
2 59780  98.6711 295.6350 0012332 179.6750 180.4444 14.31849683110104
RASSVET 1-6
1 59781U 24092J   26176.60894358  .00000154  00000-0  74334-4 0  9997
2 59781  98.6710 295.6390 0012212 179.8233 180.2957 14.31850402110101
SITRO-AIS-55
1 59809U 24092K   26176.49774404  .00023082  00000-0  63974-3 0  9996
2 59809  97.6571 309.6793 0008097 120.9286 239.2754 15.36928829116516
MESAT-1
1 60209U 24125G   26176.55392670  .00070199  00000-0  73655-3 0  9995
2 60209  97.2283  34.2314 0010441 174.3816 185.7563 15.64085809110875
ISTSAT-1
1 60238U 24128D   26176.58614362  .00006575  00000-0  39070-3 0  9998
2 60238  61.9861 176.4323 0037016 132.6497 227.7729 15.11703729107737
IONOSFERA-M 01
1 61735U 24199A   26176.56257341  .00000052  00000-0  42886-4 0  9991
2 61735  98.7165  49.6460 0002141  99.3303 260.8117 14.22755771128898
IONOSFERA-M 02
1 61736U 24199B   26176.59684819  .00000043  00000-0  38705-4 0  9994
2 61736  98.7163  49.5904 0000683  38.3301 321.7925 14.22758972132029
SITRO-AIS-16
1 61737U 24199C   26176.50890166  .00003542  00000-0  30717-3 0  9991
2 61737  97.3242  15.3176 0008118  49.7106 310.4826 14.97636380133065
SITRO-AIS-15
1 61738U 24199D   26176.49303568  .00003214  00000-0  27918-3 0  9990
2 61738  97.3227  15.3413 0007438  50.3635 309.8244 14.97645135133066
SITRO-AIS-21
1 61739U 24199E   26176.50635384  .00003051  00000-0  28209-3 0  9990
2 61739  97.3256  13.7486 0013693  41.7248 318.5015 14.95171869132995
SITRO-AIS-22
1 61740U 24199F   26176.53146232  .00002305  00000-0  21022-3 0  9991
2 61740  97.3246  14.0133 0013456  39.5176 320.7025 14.95941361133169
SITRO-AIS-24
1 61741U 24199G   26176.51524373  .00002492  00000-0  22540-3 0  9999
2 61741  97.3256  14.0441 0013596  41.6681 318.5575 14.96193784133134
SITRO-AIS-23
1 61742U 24199H   26176.51871483  .00002231  00000-0  20347-3 0  9991
2 61742  97.3252  14.0309 0013528  41.2213 319.0028 14.95971370133016
